[{"OBJECT_NAME":"TDRS 11","OBJECT_ID":"2013-004A","EPOCH":"2026-03-14T14:59:18.344832","MEAN_MOTION":1.00265934,"ECCENTRICITY":0.00041941,"INCLINATION":3.3825,"RA_OF_ASC_NODE":29.5514,"ARG_OF_PERICENTER":342.5125,"MEAN_ANOMALY":210.7323,"EPHEMERIS_TYPE":0,"CLASSIFICATION_TYPE":"U","NORAD_CAT_ID":39070,"ELEMENT_SET_NO":999,"REV_AT_EPOCH":4574,"BSTAR":0,"MEAN_MOTION_DOT":8.1e-7,"MEAN_MOTION_DDOT":0},{"OBJECT_NAME":"TDRS 12","OBJECT_ID":"2014-004A","EPOCH":"2026-03-14T08:45:39.765312","MEAN_MOTION":1.00266634,"ECCENTRICITY":0.00035413,"INCLINATION":3.8857,"RA_OF_ASC_NODE":17.4261,"ARG_OF_PERICENTER":271.8792,"MEAN_ANOMALY":333.0535,"EPHEMERIS_TYPE":0,"CLASSIFICATION_TYPE":"U","NORAD_CAT_ID":39504,"ELEMENT_SET_NO":999,"REV_AT_EPOCH":4332,"BSTAR":0,"MEAN_MOTION_DOT":-2.68e-6,"MEAN_MOTION_DDOT":0},{"OBJECT_NAME":"GPM-CORE","OBJECT_ID":"2014-009C","EPOCH":"2026-03-14T13:34:36.377184","MEAN_MOTION":15.44806539,"ECCENTRICITY":0.0012382,"INCLINATION":64.972,"RA_OF_ASC_NODE":265.153,"ARG_OF_PERICENTER":267.3332,"MEAN_ANOMALY":92.6391,"EPHEMERIS_TYPE":0,"CLASSIFICATION_TYPE":"U","NORAD_CAT_ID":39574,"ELEMENT_SET_NO":999,"REV_AT_EPOCH":68319,"BSTAR":0.00022547849,"MEAN_MOTION_DOT":0.00010407,"MEAN_MOTION_DDOT":0},{"OBJECT_NAME":"MMS 1","OBJECT_ID":"2015-011A","EPOCH":"2026-03-14T14:00:01.999872","MEAN_MOTION":0.28230059,"ECCENTRICITY":0.84073982,"INCLINATION":70.7902,"RA_OF_ASC_NODE":350.1128,"ARG_OF_PERICENTER":165.3817,"MEAN_ANOMALY":9.1349,"EPHEMERIS_TYPE":0,"CLASSIFICATION_TYPE":"U","NORAD_CAT_ID":40482,"ELEMENT_SET_NO":999,"REV_AT_EPOCH":136,"BSTAR":0,"MEAN_MOTION_DOT":-1.942e-5,"MEAN_MOTION_DDOT":0},{"OBJECT_NAME":"MMS 2","OBJECT_ID":"2015-011B","EPOCH":"2026-03-14T14:00:01.999872","MEAN_MOTION":0.28229855,"ECCENTRICITY":0.84081375,"INCLINATION":70.7904,"RA_OF_ASC_NODE":350.115,"ARG_OF_PERICENTER":165.3878,"MEAN_ANOMALY":9.1187,"EPHEMERIS_TYPE":0,"CLASSIFICATION_TYPE":"U","NORAD_CAT_ID":40483,"ELEMENT_SET_NO":999,"REV_AT_EPOCH":136,"BSTAR":0,"MEAN_MOTION_DOT":-1.942e-5,"MEAN_MOTION_DDOT":0},{"OBJECT_NAME":"MMS 3","OBJECT_ID":"2015-011C","EPOCH":"2026-03-14T14:00:01.999872","MEAN_MOTION":0.28229926,"ECCENTRICITY":0.84074127,"INCLINATION":70.7928,"RA_OF_ASC_NODE":350.1197,"ARG_OF_PERICENTER":165.382,"MEAN_ANOMALY":9.1262,"EPHEMERIS_TYPE":0,"CLASSIFICATION_TYPE":"U","NORAD_CAT_ID":40484,"ELEMENT_SET_NO":999,"REV_AT_EPOCH":136,"BSTAR":0,"MEAN_MOTION_DOT":-1.942e-5,"MEAN_MOTION_DDOT":0},{"OBJECT_NAME":"MMS 4","OBJECT_ID":"2015-011D","EPOCH":"2026-03-14T14:00:01.999872","MEAN_MOTION":0.28229692,"ECCENTRICITY":0.84069273,"INCLINATION":70.7908,"RA_OF_ASC_NODE":350.1148,"ARG_OF_PERICENTER":165.3894,"MEAN_ANOMALY":9.112,"EPHEMERIS_TYPE":0,"CLASSIFICATION_TYPE":"U","NORAD_CAT_ID":40485,"ELEMENT_SET_NO":999,"REV_AT_EPOCH":136,"BSTAR":0,"MEAN_MOTION_DOT":-1.942e-5,"MEAN_MOTION_DDOT":0},{"OBJECT_NAME":"TDRS 13","OBJECT_ID":"2017-047A","EPOCH":"2026-03-14T10:09:59.403744","MEAN_MOTION":1.00272289,"ECCENTRICITY":0.00110308,"INCLINATION":3.4312,"RA_OF_ASC_NODE":0.2963,"ARG_OF_PERICENTER":98.646,"MEAN_ANOMALY":214.1242,"EPHEMERIS_TYPE":0,"CLASSIFICATION_TYPE":"U","NORAD_CAT_ID":42915,"ELEMENT_SET_NO":999,"REV_AT_EPOCH":3139,"BSTAR":0,"MEAN_MOTION_DOT":-9.7e-7,"MEAN_MOTION_DDOT":0},{"OBJECT_NAME":"NOAA 20 (JPSS-1)","OBJECT_ID":"2017-073A","EPOCH":"2026-03-14T13:13:17.759136","MEAN_MOTION":14.19537491,"ECCENTRICITY":0.00014186,"INCLINATION":98.7696,"RA_OF_ASC_NODE":13.8898,"ARG_OF_PERICENTER":131.1845,"MEAN_ANOMALY":228.9454,"EPHEMERIS_TYPE":0,"CLASSIFICATION_TYPE":"U","NORAD_CAT_ID":43013,"ELEMENT_SET_NO":999,"REV_AT_EPOCH":43104,"BSTAR":6.0597649e-5,"MEAN_MOTION_DOT":8.4e-7,"MEAN_MOTION_DDOT":0}]
