TDRS 11                 
1 39070U 13004A   26073.62451788  .00000081  00000+0  00000+0 0  9993
2 39070   3.3825  29.5514 0004194 342.5125 210.7323  1.00265934 45746
TDRS 12                 
1 39504U 14004A   26073.36504358 -.00000268  00000+0  00000+0 0  9997
2 39504   3.8857  17.4261 0003541 271.8792 333.0535  1.00266634 43326
GPM-CORE                
1 39574U 14009C   26073.56569881  .00010407  00000+0  22548-3 0  9993
2 39574  64.9720 265.1530 0012382 267.3332  92.6391 15.44806539683194
MMS 1                   
1 40482U 15011A   26073.58335648 -.00001942  00000+0  00000+0 0  9991
2 40482  70.7902 350.1128 8407398 165.3817   9.1349  0.28230059  1360
MMS 2                   
1 40483U 15011B   26073.58335648 -.00001942  00000+0  00000+0 0  9992
2 40483  70.7904 350.1150 8408137 165.3878   9.1187  0.28229855  1369
MMS 3                   
1 40484U 15011C   26073.58335648 -.00001942  00000+0  00000+0 0  9993
2 40484  70.7928 350.1197 8407412 165.3820   9.1262  0.28229926  1362
MMS 4                   
1 40485U 15011D   26073.58335648 -.00001942  00000+0  00000+0 0  9994
2 40485  70.7908 350.1148 8406927 165.3894   9.1120  0.28229692  1361
TDRS 13                 
1 42915U 17047A   26073.42360421 -.00000097  00000+0  00000+0 0  9995
2 42915   3.4312   0.2963 0011030  98.6460 214.1242  1.00272289 31397
NOAA 20 (JPSS-1)        
1 43013U 17073A   26073.55089999  .00000084  00000+0  60598-4 0  9994
2 43013  98.7696  13.8898 0001418 131.1845 228.9454 14.19537491431042
